STARLINK-30986          
1 58492U 23186V   26068.00853274  .00000713  00000+0  36268-4 0  9998
2 58492  43.0032  67.3550 0001322 276.4823  83.5877 15.26746052125787
KUIPER-00204            
1 67145U 25301N   26068.39760395  .00020516  00000+0  79568-3 0  9999
2 67145  51.8870  71.6415 0003071 354.8934   5.2016 15.26088400 13737
